STARLINK-30864          
1 58243U 23171P   24170.50181492 -.00001399  00000+0 -88549-4 0  9991
2 58243  43.0030 104.4520 0000989 277.4662  82.6068 15.02525380 34985
STARLINK-30854          
1 58244U 23171Q   24170.82758582  .00007596  00000+0  56470-3 0  9997
2 58244  43.0028 104.2944 0001123 260.7043  99.3673 15.03341359 35149
STARLINK-30849          
1 58245U 23171R   24170.50515258 -.00001022  00000+0 -60622-4 0  9999
2 58245  43.0039 104.4775 0001271 269.1191  90.9506 15.02527506 35081
STARLINK-30886          
1 58246U 23171S   24170.51180545  .00000873  00000+0  79689-4 0  9992
2 58246  43.0026 104.5224 0001042 270.6276  89.4446 15.02534401 35083
STARLINK-30850          
1 58247U 23171T   24170.50848110  .00000283  00000+0  36024-4 0  9992
2 58247  43.0034 104.5007 0000786 269.7851  90.2901 15.02528096 35083
STARLINK-30823          
1 58248U 23171U   24170.51512886  .00001364  00000+0  11600-3 0  9995
2 58248  43.0034 104.5459 0001253 268.2060  91.8638 15.02541818 35082
STARLINK-30873          
1 58249U 23171V   24170.51846492  .00000146  00000+0  25867-4 0  9997
2 58249  43.0048 104.5714 0000930 268.3568  91.7168 15.02535291 35082
STARLINK-30808          
1 58250U 23171W   24170.54657116  .00002820  00000+0  22370-3 0  9991
2 58250  43.0022 106.4604 0000466 268.3749  91.7040 15.02546178 35063
STARLINK-30881          
1 58251U 23171X   24170.09972525 -.00000386  00000+0 -13527-4 0  9998
2 58251  43.0030 107.3607 0001106 263.5778  96.4938 15.02537083 35015
STARLINK-30883          
1 58252U 23171Y   24170.52845205  .00001482  00000+0  12480-3 0  9993
2 58252  43.0041 104.6390 0001191 255.1371 104.9339 15.02530703 35086
STARLINK-30907          
1 58352U 23177B   24170.36567710  .00000216  00000+0  31087-4 0  9993
2 58352  43.0033 171.6220 0001180 274.8048  85.2659 15.02534177 33635
STARLINK-30896          
1 58353U 23177C   24170.64992636  .00004916  00000+0  19773-3 0  9992
2 58353  43.0006 155.0106 0000661 261.2255  98.8522 15.25894606 33616
STARLINK-30832          
1 58354U 23177D   24170.38332029  .00000224  00000+0  31648-4 0  9992
2 58354  43.0041 170.8996 0001474 276.6534  83.4140 15.02533360 33507
STARLINK-30903          
1 58355U 23177E   24170.29587043 -.00000047  00000+0  11604-4 0  9995
2 58355  43.0040 171.9682 0001431 277.7604  82.3076 15.02536534 33539
STARLINK-30905          
1 58356U 23177F   24170.68252089  .00001251  00000+0  10766-3 0  9992
2 58356  43.0047 169.6724 0001337 270.5004  89.5685 15.02536550 33564
STARLINK-30842          
1 58357U 23177G   24170.39777119  .00000434  00000+0  47230-4 0  9996
2 58357  43.0041 157.2021 0001282 273.1688  86.9008 15.02536109 33715
STARLINK-30858          
1 58358U 23177H   24170.28921269 -.00001158  00000+0 -70685-4 0  9998
2 58358  43.0030 171.9143 0001224 277.8860  82.1843 15.02534185 33549
STARLINK-30878          
1 58359U 23177J   24170.44424736  .00002599  00000+0  20733-3 0  9990
2 58359  43.0018 170.4924 0001484 288.7473  71.3209 15.02548840 33567
STARLINK-30897          
1 58360U 23177K   24170.49197365  .00000616  00000+0  60707-4 0  9996
2 58360  43.0035 170.8555 0001251 279.9225  80.1476 15.02534034 33565
STARLINK-30885          
1 58361U 23177L   24170.48198362  .00000573  00000+0  57454-4 0  9991
2 58361  43.0030 170.7824 0001205 273.8950  86.1754 15.02536205 33574
STARLINK-30890          
1 58362U 23177M   24170.47865200  .00000453  00000+0  48590-4 0  9991
2 58362  43.0028 170.7550 0001137 269.8991  90.1721 15.02534691 33512
STARLINK-30909          
1 58363U 23177N   24170.41107400 -.00001692  00000+0 -11018-3 0  9999
2 58363  43.0038 171.1071 0001279 271.6762  88.3933 15.02542663 33557
STARLINK-30904          
1 58364U 23177P   24170.28108209  .00000055  00000+0  19148-4 0  9996
2 58364  42.9998 170.1356 0000972 268.0402  92.0329 15.02536810 33554
STARLINK-30918          
1 58365U 23177Q   24170.26923286  .00000298  00000+0  37110-4 0  9993
2 58365  43.0029 171.7627 0001351 278.9788  81.0902 15.02536891 33531
STARLINK-30892          
1 58366U 23177R   24170.27256038  .00000331  00000+0  39583-4 0  9993
2 58366  43.0032 171.7876 0001509 281.5714  78.4959 15.02537719 33549
STARLINK-30891          
1 58367U 23177S   24170.26590338  .00000213  00000+0  30816-4 0  9996
2 58367  43.0027 171.7365 0001115 286.6863  73.3857 15.02533578 33473
STARLINK-30889          
1 58368U 23177T   24170.26811848  .00000692  00000+0  66261-4 0  9993
2 58368  43.0029 171.7531 0001194 273.5944  86.4762 15.02539510 33532
STARLINK-30870          
1 58369U 23177U   24170.46311264  .00000204  00000+0  30165-4 0  9996
2 58369  43.0031 170.6364 0001141 277.2703  82.8009 15.02538205 33561
STARLINK-30888          
1 58370U 23177V   24170.70026181 -.00011895  00000+0 -86583-3 0  9990
2 58370  43.0035 169.8232 0001293 263.0239  97.0456 15.02584471 33601
STARLINK-30859          
1 58371U 23177W   24170.49086005 -.00000399  00000+0 -14446-4 0  9995
2 58371  43.0028 170.8126 0001158 274.7540  85.3170 15.02535364 33578
STARLINK-30884          
1 58372U 23177X   24170.72347892  .00000525  00000+0  53930-4 0  9996
2 58372  43.0026 169.1483 0001129 273.6272  86.4441 15.02534738 33614
STARLINK-30852          
1 58373U 23177Y   24170.28587612  .00000687  00000+0  65926-4 0  9991
2 58373  43.0033 171.8528 0001253 274.7436  85.3264 15.02528166 33535
STARLINK-30911          
1 58374U 23178A   24170.37628290  .00004397  00000+0  17125-3 0  9990
2 58374  53.1747  47.4561 0001151  80.2385 279.8745 15.28029591 33490
STARLINK-30894          
1 58375U 23178B   24170.82512574 -.00000299  00000+0  18802-5 0  9991
2 58375  53.1761  45.2807 0001914  78.3087 281.8128 15.28009253 33491
STARLINK-30910          
1 58376U 23178C   24170.36224516 -.00001329  00000+0 -35320-4 0  9996
2 58376  53.1710  47.3885 0001274  86.4678 273.6468 15.28023538 33498
STARLINK-30914          
1 58377U 23178D   24170.37661935  .00007829  00000+0  29495-3 0  9992
2 58377  53.1667  47.4827 0001055  56.3758 303.7342 15.28028203 33499
STARLINK-30920          
1 58378U 23178E   24169.95620002 -.00001204  00000+0 -30817-4 0  9999
2 58378  53.1679  49.8660 0000873 104.4302 255.6795 15.28028407 33427
STARLINK-30882          
1 58379U 23178F   24170.35789518  .00000631  00000+0  35426-4 0  9996
2 58379  53.1813  47.3224 0000788  97.8945 262.2145 15.28022932 33497
STARLINK-30915          
1 58380U 23178G   24170.61145167 -.00001703  00000+0 -32638-4 0  9998
2 58380  53.0829 329.2063 0000346 138.7838 221.3192 15.39609267 34587
STARLINK-30923          
1 58381U 23178H   24169.94605619  .00001933  00000+0  82401-4 0  9992
2 58381  53.1841  48.9698 0000392 108.5600 251.5443 15.28021522 33331
STARLINK-30927          
1 58382U 23178J   24170.82434384  .00024056  00000+0  87744-3 0  9996
2 58382  53.1645  44.6047 0001035  68.9555 291.1555 15.28053970 33547
STARLINK-30921          
1 58383U 23178K   24170.08624278 -.00000838  00000+0 -17610-4 0  9998
2 58383  53.1651  48.5260 0000871  63.7386 296.3704 15.28017147 33434
STARLINK-30825          
1 58384U 23178L   24170.37160676  .00005827  00000+0  22289-3 0  9996
2 58384  53.1667  47.4292 0001234  91.7993 268.3148 15.28018432 33499
STARLINK-30930          
1 58385U 23178M   24170.38129674  .00000508  00000+0  31003-4 0  9997
2 58385  53.1666  47.5154 0001042  80.9036 279.2082 15.28020925 33366
STARLINK-30929          
1 58386U 23178N   24170.80064656  .00001583  00000+0  69803-4 0  9996
2 58386  53.1707  42.0913 0001232  88.9173 271.1968 15.28012829 33578
STARLINK-30898          
1 58387U 23178P   24170.35244153 -.00001222  00000+0 -31477-4 0  9997
2 58387  53.1667  46.4926 0001315  74.2796 285.8349 15.28015539 33506
STARLINK-30913          
1 58388U 23178Q   24169.94139629  .00004699  00000+0  18219-3 0  9999
2 58388  53.1765  49.0068 0001507  87.0684 273.0489 15.28024944 33439
STARLINK-30938          
1 58389U 23178R   24170.39032514  .00001025  00000+0  49681-4 0  9994
2 58389  53.1684  47.5695 0001556  84.7578 275.3600 15.28018020 33493
STARLINK-30868          
1 58390U 23178S   24170.85743248  .00002985  00000+0  12037-3 0  9990
2 58390  53.1768  44.7707 0001401  76.7539 283.3618 15.28030266 33560
STARLINK-30916          
1 58391U 23178T   24170.83369176 -.00002445  00000+0 -75672-4 0  9991
2 58391  53.1723  44.5260 0001193  91.9355 268.1781 15.28013421 33574
STARLINK-30937          
1 58392U 23178U   24170.36179698 -.00001497  00000+0 -41389-4 0  9992
2 58392  53.1661  46.6006 0000923 107.9368 252.1732 15.28019176 33504
STARLINK-30939          
1 58393U 23178V   24170.35756944  .00000642  00000+0  35824-4 0  9993
2 58393  53.1752  47.3262 0001104  70.5217 289.5902 15.28022756 33363
STARLINK-30887          
1 58394U 23178W   24170.36692739  .00008045  00000+0  30290-3 0  9992
2 58394  53.1605  47.2614 0001311  91.4877 268.6273 15.28010097 33471
STARLINK-30934          
1 58395U 23178X   24170.81500840  .00002174  00000+0  91186-4 0  9993
2 58395  53.1747  44.5455 0001602  83.0096 277.1086 15.28006437 33509
STARLINK-30964          
1 58402U 23180A   24170.44398165  .00000504  00000+0  52342-4 0  9995
2 58402  43.0029 234.8736 0001267 268.3522  91.7175 15.02538015 32933
STARLINK-30844          
1 58403U 23180B   24170.16820508 -.00000141  00000+0  46588-5 0  9990
2 58403  43.0039 237.1065 0001344 265.3842  94.6847 15.02532350 32770
STARLINK-30876          
1 58404U 23180C   24170.23134816  .00001453  00000+0  12262-3 0  9995
2 58404  43.0036 236.7199 0001439 274.1900  85.8777 15.02534419 32894
STARLINK-30952          
1 58405U 23180D   24170.49392888  .00000923  00000+0  83399-4 0  9990
2 58405  43.0022 235.2481 0001329 277.1019  82.9673 15.02536698 32827
STARLINK-30925          
1 58406U 23180E   24170.49060304  .00000481  00000+0  50696-4 0  9999
2 58406  43.0020 235.2233 0001289 276.8016  83.2680 15.02536425 32829
